     2.11           N: GPS NAV DATA                         RINEX VERSION / TYPE
CONVBIN 2.4.2                           20180601 072813 UTC PGM / RUN BY / DATE 
log: 150159.ubx                                             COMMENT             
format: u-blox                                              COMMENT             
                                                            END OF HEADER       
26 18  5 14 16  0  0.0 -.149509869516E-03  .127329258248E-10  .000000000000E+00
     .460000000000E+02 -.522187500000E+02  .523843248745E-08  .218415528457E+01
    -.258535146713E-05  .278936047107E-02  .124424695969E-05  .515365265656E+04
     .144000000000E+06 -.109896063805E-06  .166838843304E+01  .119209289551E-06
     .955591682812E+00  .354437500000E+03  .123246087843E+00 -.873464954750E-08
    -.211794536378E-09  .100000000000E+01  .200100000000E+04  .000000000000E+00
     .240000000000E+01  .000000000000E+00  .745058059692E-08  .460000000000E+02
     .140556000000E+06  .400000000000E+01
21 18  5 14 16  0  0.0 -.395141076297E-03  .488853402203E-11  .000000000000E+00
     .670000000000E+02  .554375000000E+02  .468840957679E-08  .266895176391E+01
     .277534127235E-05  .244054035284E-01  .905804336071E-05  .515370826912E+04
     .144000000000E+06  .257045030594E-06 -.255119340363E+01 -.316649675369E-07
     .943818921252E+00  .188218750000E+03 -.155867092591E+01 -.771139263903E-08
     .493234830925E-09  .100000000000E+01  .200100000000E+04  .000000000000E+00
     .240000000000E+01  .000000000000E+00 -.102445483208E-07  .670000000000E+02
     .140556000000E+06  .400000000000E+01
29 18  5 14 15 59 44.0  .450073741376E-03 -.636646291241E-11  .000000000000E+00
     .620000000000E+02 -.860000000000E+02  .367443876941E-08  .141729298959E+01
    -.462494790554E-05  .753772328608E-03  .123623758554E-04  .515370208168E+04
     .143984000000E+06 -.149011611938E-07  .279461359618E+01 -.111758708954E-07
     .984214372845E+00  .154750000000E+03  .108276319679E+01 -.756710091441E-08
    -.227152318949E-09  .100000000000E+01  .200100000000E+04  .000000000000E+00
     .240000000000E+01  .000000000000E+00 -.102445483208E-07  .620000000000E+02
     .140556000000E+06  .400000000000E+01
16 18  5 14 16  0  0.0  .248197466135E-04 -.113686837722E-11  .000000000000E+00
     .183000000000E+03 -.661562500000E+02  .452268838813E-08  .129464528205E+01
    -.316090881824E-05  .100408685394E-01  .233575701714E-05  .515362617493E+04
     .144000000000E+06 -.353902578354E-07  .176868082274E+01  .189989805222E-06
     .986830542893E+00  .350500000000E+03  .513009844896E+00 -.844570894053E-08
    -.446090010011E-09  .100000000000E+01  .200100000000E+04  .000000000000E+00
     .240000000000E+01  .000000000000E+00 -.107102096081E-07  .183000000000E+03
     .140556000000E+06  .400000000000E+01
31 18  5 14 16  0  0.0  .121700577438E-03 -.261479726760E-11  .000000000000E+00
     .650000000000E+02  .141625000000E+03  .458554814934E-08 -.268616237338E+01
     .734627246857E-05  .873697258066E-02  .633671879768E-05  .515366364098E+04
     .144000000000E+06 -.119209289551E-06  .669482047072E+00 -.186264514923E-08
     .963613778427E+00  .263125000000E+03 -.130947721012E+00 -.813426739632E-08
     .492163357722E-09  .100000000000E+01  .200100000000E+04  .000000000000E+00
     .240000000000E+01  .000000000000E+00 -.135041773319E-07  .650000000000E+02
     .140556000000E+06  .400000000000E+01
20 18  5 14 16  0  0.0  .508153811097E-03  .909494701773E-12  .000000000000E+00
     .630000000000E+02 -.173437500000E+02  .566952187263E-08 -.152209093729E+01
    -.679865479469E-06  .424562627450E-02  .402703881264E-05  .515483040428E+04
     .144000000000E+06 -.782310962677E-07 -.156336581623E+01  .502914190292E-07
     .927809693764E+00  .285468750000E+03  .194451470327E+01 -.874393564859E-08
    -.628597612185E-10  .100000000000E+01  .200100000000E+04  .000000000000E+00
     .240000000000E+01  .000000000000E+00 -.838190317154E-08  .630000000000E+02
     .140556000000E+06  .400000000000E+01
25 18  5 14 16  0  0.0 -.584999099374E-03 -.591171556152E-11  .000000000000E+00
     .860000000000E+02 -.546562500000E+02  .462054960729E-08  .272064589798E+01
    -.300444662571E-05  .749277125578E-02  .128522515297E-05  .515364611244E+04
     .144000000000E+06 -.800937414169E-07  .169012976416E+01 -.135973095894E-06
     .974044536476E+00  .359812500000E+03  .857045418970E+00 -.829498837670E-08
    -.271797035723E-09  .100000000000E+01  .200100000000E+04  .000000000000E+00
     .340000000000E+01  .000000000000E+00  .605359673500E-08  .860000000000E+02
     .140556000000E+06  .400000000000E+01
 5 18  5 14 15 59 44.0 -.795628875494E-05  .682121026330E-12  .000000000000E+00
     .520000000000E+02 -.258125000000E+02  .525664753190E-08  .118756442289E+01
    -.125169754028E-05  .533429940697E-02  .420399010181E-05  .515369300461E+04
     .143984000000E+06 -.465661287308E-07 -.147591040980E+01  .130385160446E-07
     .947376362051E+00  .293031250000E+03  .608931285529E+00 -.856071373095E-08
    -.226795161215E-09  .100000000000E+01  .200100000000E+04  .000000000000E+00
     .240000000000E+01  .000000000000E+00 -.111758708954E-07  .520000000000E+02
     .140556000000E+06  .400000000000E+01
